GLOBALSTAR M094         
1 39074U 13005C   26002.24550657 -.00000096  00000+0  41252-4 0  9999
2 39074  51.9974 296.0450 0000740  37.3716 322.7202 12.62265445597516
GLOBALSTAR M096         
1 39075U 13005D   26002.41687608 -.00000099  00000+0  28683-4 0  9992
2 39075  52.0101 344.1906 0000396  22.0243 338.0640 12.62269634596457
GLOBALSTAR M078         
1 39076U 13005E   26002.62838574 -.00000115  00000+0 -60271-4 0  9995
2 39076  51.9887  67.7872 0000580 234.6469 125.4343 12.62271099595100
GLOBALSTAR M095         
1 39077U 13005F   26002.41715983 -.00000086  00000+0  10096-3 0  9996
2 39077  52.0096  65.7993 0000055 149.7230 210.3640 12.62267511594934
GLOBALSTAR M087         
1 52888U 22064A   26002.74700773 -.00000078  00000+0  14588-3 0  9994
2 52888  51.9972 206.1285 0000976  70.7726 289.3246 12.62262252170249
